ONEWEB-0568             
1 56062U 23043S   26062.45116554  .00000016  00000+0  74177-5 0  9995
2 56062  87.9000 249.8061 0001660  84.6965 275.4355 13.16590836145065
ONEWEB-0574             
1 56063U 23043T   26062.06577137  .00000029  00000+0  38790-4 0  9995
2 56063  87.9177 265.1289 0001452  87.1455 272.9845 13.21825440144259
ONEWEB-0575             
1 56064U 23043U   26062.44482048  .00000044  00000+0  81199-4 0  9992
2 56064  87.8999 249.8049 0001279  80.4662 279.6614 13.16593706145055
ONEWEB-0576             
1 56065U 23043V   26062.50182117  .00000098  00000+0  22388-3 0  9997
2 56065  87.9003 249.7974 0001404  86.8566 273.2725 13.16593106145059
ONEWEB-0577             
1 56066U 23043W   26062.50815309  .00000120  00000+0  27935-3 0  9993
2 56066  87.9003 249.7950 0000858  76.0171 284.1055 13.16593473145086
ONEWEB-0578             
1 56067U 23043X   26062.50677117  .00000119  00000+0  25630-3 0  9995
2 56067  87.9167 265.0479 0001712  81.0203 279.1125 13.21827495144279
ONEWEB-0579             
1 56068U 23043Y   26062.49690900  .00000056  00000+0  10364-3 0  9997
2 56068  87.9174 265.0396 0001574 100.6243 259.5068 13.21825998144289
ONEWEB-0581             
1 56069U 23043Z   26062.51449166  .00000132  00000+0  31100-3 0  9993
2 56069  87.9002 249.8052 0001017  86.6318 273.4929 13.16594280145055
ONEWEB-0609             
1 56070U 23043AA  26062.38800972 -.00000052  00000+0 -17299-3 0  9992
2 56070  87.8945 280.3429 0001657  88.3081 271.8239 13.15547458142525
ONEWEB-0613             
1 56071U 23043AB  26062.15508557 -.00000054  00000+0 -17727-3 0  9990
2 56071  87.8947 280.4001 0001641  96.3665 263.7652 13.15547218142494
ONEWEB-0630             
1 56072U 23043AC  26062.15033362 -.00000022  00000+0 -92710-4 0  9999
2 56072  87.8943 280.3709 0001592  96.3790 263.7522 13.15548034142481
ONEWEB-0632             
1 56073U 23043AD  26062.14557828  .00000108  00000+0  25182-3 0  9998
2 56073  87.8945 280.3894 0001352  86.1569 273.9716 13.15547094142487
ONEWEB-0633             
1 56074U 23043AE  26062.13924009  .00000180  00000+0  44507-3 0  9999
2 56074  87.8958 280.3574 0001822  99.5423 260.5914 13.15547360142462
ONEWEB-0634             
1 56075U 23043AF  26062.50526610  .00000119  00000+0  28093-3 0  9991
2 56075  87.8945 280.3336 0001876  84.4606 275.6739 13.15546979142502
ONEWEB-0635             
1 56076U 23043AG  26062.12022309  .00000086  00000+0  19364-3 0  9990
2 56076  87.8949 280.3642 0001271  84.2827 275.8448 13.15547083142482
ONEWEB-0636             
1 56077U 23043AH  26062.11230142  .00000074  00000+0  16270-3 0  9996
2 56077  87.8946 280.3800 0001344  84.1431 275.9852 13.15547236142465
ONEWEB-0637             
1 56078U 23043AJ  26062.10597105 -.00000005  00000+0 -48181-4 0  9994
2 56078  87.8947 280.3991 0001555  74.8512 285.2790 13.15547746142481
