[{"OBJECT_NAME":"ONEWEB-0568","OBJECT_ID":"2023-043S","EPOCH":"2026-03-03T10:49:40.702656","MEAN_MOTION":13.16590836,"ECCENTRICITY":0.000166,"INCLINATION":87.9,"RA_OF_ASC_NODE":249.8061,"ARG_OF_PERICENTER":84.6965,"MEAN_ANOMALY":275.4355,"EPHEMERIS_TYPE":0,"CLASSIFICATION_TYPE":"U","NORAD_CAT_ID":56062,"ELEMENT_SET_NO":999,"REV_AT_EPOCH":14506,"BSTAR":7.4177e-6,"MEAN_MOTION_DOT":1.6e-7,"MEAN_MOTION_DDOT":0},{"OBJECT_NAME":"ONEWEB-0574","OBJECT_ID":"2023-043T","EPOCH":"2026-03-03T01:34:42.646368","MEAN_MOTION":13.2182544,"ECCENTRICITY":0.0001452,"INCLINATION":87.9177,"RA_OF_ASC_NODE":265.1289,"ARG_OF_PERICENTER":87.1455,"MEAN_ANOMALY":272.9845,"EPHEMERIS_TYPE":0,"CLASSIFICATION_TYPE":"U","NORAD_CAT_ID":56063,"ELEMENT_SET_NO":999,"REV_AT_EPOCH":14425,"BSTAR":3.879e-5,"MEAN_MOTION_DOT":2.9e-7,"MEAN_MOTION_DDOT":0},{"OBJECT_NAME":"ONEWEB-0575","OBJECT_ID":"2023-043U","EPOCH":"2026-03-03T10:40:32.489472","MEAN_MOTION":13.16593706,"ECCENTRICITY":0.0001279,"INCLINATION":87.8999,"RA_OF_ASC_NODE":249.8049,"ARG_OF_PERICENTER":80.4662,"MEAN_ANOMALY":279.6614,"EPHEMERIS_TYPE":0,"CLASSIFICATION_TYPE":"U","NORAD_CAT_ID":56064,"ELEMENT_SET_NO":999,"REV_AT_EPOCH":14505,"BSTAR":8.1199e-5,"MEAN_MOTION_DOT":4.4e-7,"MEAN_MOTION_DDOT":0},{"OBJECT_NAME":"ONEWEB-0576","OBJECT_ID":"2023-043V","EPOCH":"2026-03-03T12:02:37.349088","MEAN_MOTION":13.16593106,"ECCENTRICITY":0.0001404,"INCLINATION":87.9003,"RA_OF_ASC_NODE":249.7974,"ARG_OF_PERICENTER":86.8566,"MEAN_ANOMALY":273.2725,"EPHEMERIS_TYPE":0,"CLASSIFICATION_TYPE":"U","NORAD_CAT_ID":56065,"ELEMENT_SET_NO":999,"REV_AT_EPOCH":14505,"BSTAR":0.00022388,"MEAN_MOTION_DOT":9.8e-7,"MEAN_MOTION_DDOT":0},{"OBJECT_NAME":"ONEWEB-0577","OBJECT_ID":"2023-043W","EPOCH":"2026-03-03T12:11:44.426976","MEAN_MOTION":13.16593473,"ECCENTRICITY":8.58e-5,"INCLINATION":87.9003,"RA_OF_ASC_NODE":249.795,"ARG_OF_PERICENTER":76.0171,"MEAN_ANOMALY":284.1055,"EPHEMERIS_TYPE":0,"CLASSIFICATION_TYPE":"U","NORAD_CAT_ID":56066,"ELEMENT_SET_NO":999,"REV_AT_EPOCH":14508,"BSTAR":0.00027935,"MEAN_MOTION_DOT":1.2e-6,"MEAN_MOTION_DDOT":0},{"OBJECT_NAME":"ONEWEB-0578","OBJECT_ID":"2023-043X","EPOCH":"2026-03-03T12:09:45.029088","MEAN_MOTION":13.21827495,"ECCENTRICITY":0.0001712,"INCLINATION":87.9167,"RA_OF_ASC_NODE":265.0479,"ARG_OF_PERICENTER":81.0203,"MEAN_ANOMALY":279.1125,"EPHEMERIS_TYPE":0,"CLASSIFICATION_TYPE":"U","NORAD_CAT_ID":56067,"ELEMENT_SET_NO":999,"REV_AT_EPOCH":14427,"BSTAR":0.0002563,"MEAN_MOTION_DOT":1.19e-6,"MEAN_MOTION_DDOT":0},{"OBJECT_NAME":"ONEWEB-0579","OBJECT_ID":"2023-043Y","EPOCH":"2026-03-03T11:55:32.937600","MEAN_MOTION":13.21825998,"ECCENTRICITY":0.0001574,"INCLINATION":87.9174,"RA_OF_ASC_NODE":265.0396,"ARG_OF_PERICENTER":100.6243,"MEAN_ANOMALY":259.5068,"EPHEMERIS_TYPE":0,"CLASSIFICATION_TYPE":"U","NORAD_CAT_ID":56068,"ELEMENT_SET_NO":999,"REV_AT_EPOCH":14428,"BSTAR":0.00010364,"MEAN_MOTION_DOT":5.6e-7,"MEAN_MOTION_DDOT":0},{"OBJECT_NAME":"ONEWEB-0581","OBJECT_ID":"2023-043Z","EPOCH":"2026-03-03T12:20:52.079424","MEAN_MOTION":13.1659428,"ECCENTRICITY":0.0001017,"INCLINATION":87.9002,"RA_OF_ASC_NODE":249.8052,"ARG_OF_PERICENTER":86.6318,"MEAN_ANOMALY":273.4929,"EPHEMERIS_TYPE":0,"CLASSIFICATION_TYPE":"U","NORAD_CAT_ID":56069,"ELEMENT_SET_NO":999,"REV_AT_EPOCH":14505,"BSTAR":0.000311,"MEAN_MOTION_DOT":1.32e-6,"MEAN_MOTION_DDOT":0},{"OBJECT_NAME":"ONEWEB-0609","OBJECT_ID":"2023-043AA","EPOCH":"2026-03-03T09:18:44.039808","MEAN_MOTION":13.15547458,"ECCENTRICITY":0.0001657,"INCLINATION":87.8945,"RA_OF_ASC_NODE":280.3429,"ARG_OF_PERICENTER":88.3081,"MEAN_ANOMALY":271.8239,"EPHEMERIS_TYPE":0,"CLASSIFICATION_TYPE":"U","NORAD_CAT_ID":56070,"ELEMENT_SET_NO":999,"REV_AT_EPOCH":14252,"BSTAR":-0.00017299,"MEAN_MOTION_DOT":-5.2e-7,"MEAN_MOTION_DDOT":0},{"OBJECT_NAME":"ONEWEB-0613","OBJECT_ID":"2023-043AB","EPOCH":"2026-03-03T03:43:19.393248","MEAN_MOTION":13.15547218,"ECCENTRICITY":0.0001641,"INCLINATION":87.8947,"RA_OF_ASC_NODE":280.4001,"ARG_OF_PERICENTER":96.3665,"MEAN_ANOMALY":263.7652,"EPHEMERIS_TYPE":0,"CLASSIFICATION_TYPE":"U","NORAD_CAT_ID":56071,"ELEMENT_SET_NO":999,"REV_AT_EPOCH":14249,"BSTAR":-0.00017727,"MEAN_MOTION_DOT":-5.4e-7,"MEAN_MOTION_DDOT":0},{"OBJECT_NAME":"ONEWEB-0630","OBJECT_ID":"2023-043AC","EPOCH":"2026-03-03T03:36:28.824768","MEAN_MOTION":13.15548034,"ECCENTRICITY":0.0001592,"INCLINATION":87.8943,"RA_OF_ASC_NODE":280.3709,"ARG_OF_PERICENTER":96.379,"MEAN_ANOMALY":263.7522,"EPHEMERIS_TYPE":0,"CLASSIFICATION_TYPE":"U","NORAD_CAT_ID":56072,"ELEMENT_SET_NO":999,"REV_AT_EPOCH":14248,"BSTAR":-9.271e-5,"MEAN_MOTION_DOT":-2.2e-7,"MEAN_MOTION_DDOT":0},{"OBJECT_NAME":"ONEWEB-0632","OBJECT_ID":"2023-043AD","EPOCH":"2026-03-03T03:29:37.963392","MEAN_MOTION":13.15547094,"ECCENTRICITY":0.0001352,"INCLINATION":87.8945,"RA_OF_ASC_NODE":280.3894,"ARG_OF_PERICENTER":86.1569,"MEAN_ANOMALY":273.9716,"EPHEMERIS_TYPE":0,"CLASSIFICATION_TYPE":"U","NORAD_CAT_ID":56073,"ELEMENT_SET_NO":999,"REV_AT_EPOCH":14248,"BSTAR":0.00025182,"MEAN_MOTION_DOT":1.08e-6,"MEAN_MOTION_DDOT":0},{"OBJECT_NAME":"ONEWEB-0633","OBJECT_ID":"2023-043AE","EPOCH":"2026-03-03T03:20:30.343776","MEAN_MOTION":13.1554736,"ECCENTRICITY":0.0001822,"INCLINATION":87.8958,"RA_OF_ASC_NODE":280.3574,"ARG_OF_PERICENTER":99.5423,"MEAN_ANOMALY":260.5914,"EPHEMERIS_TYPE":0,"CLASSIFICATION_TYPE":"U","NORAD_CAT_ID":56074,"ELEMENT_SET_NO":999,"REV_AT_EPOCH":14246,"BSTAR":0.00044507,"MEAN_MOTION_DOT":1.8e-6,"MEAN_MOTION_DDOT":0},{"OBJECT_NAME":"ONEWEB-0634","OBJECT_ID":"2023-043AF","EPOCH":"2026-03-03T12:07:34.991040","MEAN_MOTION":13.15546979,"ECCENTRICITY":0.0001876,"INCLINATION":87.8945,"RA_OF_ASC_NODE":280.3336,"ARG_OF_PERICENTER":84.4606,"MEAN_ANOMALY":275.6739,"EPHEMERIS_TYPE":0,"CLASSIFICATION_TYPE":"U","NORAD_CAT_ID":56075,"ELEMENT_SET_NO":999,"REV_AT_EPOCH":14250,"BSTAR":0.00028093,"MEAN_MOTION_DOT":1.19e-6,"MEAN_MOTION_DDOT":0},{"OBJECT_NAME":"ONEWEB-0635","OBJECT_ID":"2023-043AG","EPOCH":"2026-03-03T02:53:07.274976","MEAN_MOTION":13.15547083,"ECCENTRICITY":0.0001271,"INCLINATION":87.8949,"RA_OF_ASC_NODE":280.3642,"ARG_OF_PERICENTER":84.2827,"MEAN_ANOMALY":275.8448,"EPHEMERIS_TYPE":0,"CLASSIFICATION_TYPE":"U","NORAD_CAT_ID":56076,"ELEMENT_SET_NO":999,"REV_AT_EPOCH":14248,"BSTAR":0.00019364,"MEAN_MOTION_DOT":8.6e-7,"MEAN_MOTION_DDOT":0},{"OBJECT_NAME":"ONEWEB-0636","OBJECT_ID":"2023-043AH","EPOCH":"2026-03-03T02:41:42.842688","MEAN_MOTION":13.15547236,"ECCENTRICITY":0.0001344,"INCLINATION":87.8946,"RA_OF_ASC_NODE":280.38,"ARG_OF_PERICENTER":84.1431,"MEAN_ANOMALY":275.9852,"EPHEMERIS_TYPE":0,"CLASSIFICATION_TYPE":"U","NORAD_CAT_ID":56077,"ELEMENT_SET_NO":999,"REV_AT_EPOCH":14246,"BSTAR":0.0001627,"MEAN_MOTION_DOT":7.4e-7,"MEAN_MOTION_DDOT":0},{"OBJECT_NAME":"ONEWEB-0637","OBJECT_ID":"2023-043AJ","EPOCH":"2026-03-03T02:32:35.898720","MEAN_MOTION":13.15547746,"ECCENTRICITY":0.0001555,"INCLINATION":87.8947,"RA_OF_ASC_NODE":280.3991,"ARG_OF_PERICENTER":74.8512,"MEAN_ANOMALY":285.279,"EPHEMERIS_TYPE":0,"CLASSIFICATION_TYPE":"U","NORAD_CAT_ID":56078,"ELEMENT_SET_NO":999,"REV_AT_EPOCH":14248,"BSTAR":-4.8181e-5,"MEAN_MOTION_DOT":-5.0e-8,"MEAN_MOTION_DDOT":0}]
